NUSAT-48 (HENRIETTA LE*)
1 60498U 24149AG  26068.80506098  .00012988  00000+0  45212-3 0  9999
2 60498  97.3923 150.8264 0002754 263.3026  96.7901 15.29812597 86946
STARLINK-32705          
1 62479U 24254T   26068.18665754  .00028904  00000+0  10549-2 0  9992
2 62479  43.0028  11.6338 0001402 251.0494 109.0206 15.27607131 67500
